[
  {
    "name": "AfeganistÃ£o",
    "dial_code": "+93",
    "emoji": "ğŸ‡¦ğŸ‡«",
    "code": "AF"
  },
  {
    "name": "Ilhas Ã…land",
    "dial_code": "+358",
    "emoji": "ğŸ‡¦ğŸ‡½",
    "code": "AX"
  },
  {
    "name": "AlbÃ¢nia",
    "dial_code": "+355",
    "emoji": "ğŸ‡¦ğŸ‡±",
    "code": "AL"
  },
  {
    "name": "ArgÃ©lia",
    "dial_code": "+213",
    "emoji": "ğŸ‡©ğŸ‡¿",
    "code": "DZ"
  },
  {
    "name": "Samoa Americana",
    "dial_code": "+1684",
    "emoji": "ğŸ‡¦ğŸ‡¸",
    "code": "AS"
  },
  {
    "name": "Andorra",
    "dial_code": "+376",
    "emoji": "ğŸ‡¦ğŸ‡©",
    "code": "AD"
  },
  {
    "name": "Angola",
    "dial_code": "+244",
    "emoji": "ğŸ‡¦ğŸ‡´",
    "code": "AO"
  },
  {
    "name": "Anguila",
    "dial_code": "+1264",
    "emoji": "ğŸ‡¦ğŸ‡®",
    "code": "AI"
  },
  {
    "name": "AntÃ¡rtida",
    "dial_code": "+672",
    "emoji": "ğŸ‡¦ğŸ‡¶",
    "code": "AQ"
  },
  {
    "name": "AntÃ­gua e Barbuda",
    "dial_code": "+1268",
    "emoji": "ğŸ‡¦ğŸ‡¬",
    "code": "AG"
  },
  {
    "name": "Argentina",
    "dial_code": "+54",
    "emoji": "ğŸ‡¦ğŸ‡·",
    "code": "AR"
  },
  {
    "name": "ArmÃªnia",
    "dial_code": "+374",
    "emoji": "ğŸ‡¦ğŸ‡²",
    "code": "AM"
  },
  {
    "name": "Aruba",
    "dial_code": "+297",
    "emoji": "ğŸ‡¦ğŸ‡¼",
    "code": "AW"
  },
  {
    "name": "AustrÃ¡lia",
    "dial_code": "+61",
    "emoji": "ğŸ‡¦ğŸ‡º",
    "code": "AU"
  },
  {
    "name": "Ãustria",
    "dial_code": "+43",
    "emoji": "ğŸ‡¦ğŸ‡¹",
    "code": "AT"
  },
  {
    "name": "AzerbaijÃ£o",
    "dial_code": "+994",
    "emoji": "ğŸ‡¦ğŸ‡¿",
    "code": "AZ"
  },
  {
    "name": "Bahamas",
    "dial_code": "+1242",
    "emoji": "ğŸ‡§ğŸ‡¸",
    "code": "BS"
  },
  {
    "name": "BarÃ©m",
    "dial_code": "+973",
    "emoji": "ğŸ‡§ğŸ‡­",
    "code": "BH"
  },
  {
    "name": "Bangladexe",
    "dial_code": "+880",
    "emoji": "ğŸ‡§ğŸ‡©",
    "code": "BD"
  },
  {
    "name": "Barbados",
    "dial_code": "+1246",
    "emoji": "ğŸ‡§ğŸ‡§",
    "code": "BB"
  },
  {
    "name": "BielorrÃºssia",
    "dial_code": "+375",
    "emoji": "ğŸ‡§ğŸ‡¾",
    "code": "BY"
  },
  {
    "name": "BÃ©lgica",
    "dial_code": "+32",
    "emoji": "ğŸ‡§ğŸ‡ª",
    "code": "BE"
  },
  {
    "name": "Belize",
    "dial_code": "+501",
    "emoji": "ğŸ‡§ğŸ‡¿",
    "code": "BZ"
  },
  {
    "name": "Benim",
    "dial_code": "+229",
    "emoji": "ğŸ‡§ğŸ‡¯",
    "code": "BJ"
  },
  {
    "name": "Bermudas",
    "dial_code": "+1441",
    "emoji": "ğŸ‡§ğŸ‡²",
    "code": "BM"
  },
  {
    "name": "ButÃ£o",
    "dial_code": "+975",
    "emoji": "ğŸ‡§ğŸ‡¹",
    "code": "BT"
  },
  {
    "name": "BolÃ­via",
    "dial_code": "+591",
    "emoji": "ğŸ‡§ğŸ‡´",
    "code": "BO"
  },
  {
    "name": "BÃ³snia e Herzegovina",
    "dial_code": "+387",
    "emoji": "ğŸ‡§ğŸ‡¦",
    "code": "BA"
  },
  {
    "name": "Botsuana",
    "dial_code": "+267",
    "emoji": "ğŸ‡§ğŸ‡¼",
    "code": "BW"
  },
  {
    "name": "Brasil",
    "dial_code": "+55",
    "emoji": "ğŸ‡§ğŸ‡·",
    "code": "BR"
  },
  {
    "name": "TerritÃ³rio BritÃ¢nico do Oceano Ãndico",
    "dial_code": "+246",
    "emoji": "ğŸ‡®ğŸ‡´",
    "code": "IO"
  },
  {
    "name": "Brunei",
    "dial_code": "+673",
    "emoji": "ğŸ‡§ğŸ‡³",
    "code": "BN"
  },
  {
    "name": "BulgÃ¡ria",
    "dial_code": "+359",
    "emoji": "ğŸ‡§ğŸ‡¬",
    "code": "BG"
  },
  {
    "name": "Burquina Fasso",
    "dial_code": "+226",
    "emoji": "ğŸ‡§ğŸ‡«",
    "code": "BF"
  },
  {
    "name": "Burundi",
    "dial_code": "+257",
    "emoji": "ğŸ‡§ğŸ‡®",
    "code": "BI"
  },
  {
    "name": "Camboja",
    "dial_code": "+855",
    "emoji": "ğŸ‡°ğŸ‡­",
    "code": "KH"
  },
  {
    "name": "CamarÃµes",
    "dial_code": "+237",
    "emoji": "ğŸ‡¨ğŸ‡²",
    "code": "CM"
  },
  {
    "name": "CanadÃ¡",
    "dial_code": "+1",
    "emoji": "ğŸ‡¨ğŸ‡¦",
    "code": "CA"
  },
  {
    "name": "Cabo Verde",
    "dial_code": "+238",
    "emoji": "ğŸ‡¨ğŸ‡»",
    "code": "CV"
  },
  {
    "name": "Ilhas CaimÃ£",
    "dial_code": "+345",
    "emoji": "ğŸ‡°ğŸ‡¾",
    "code": "KY"
  },
  {
    "name": "RepÃºblica Centro-Africana",
    "dial_code": "+236",
    "emoji": "ğŸ‡¨ğŸ‡«",
    "code": "CF"
  },
  {
    "name": "Chade",
    "dial_code": "+235",
    "emoji": "ğŸ‡¹ğŸ‡©",
    "code": "TD"
  },
  {
    "name": "Chile",
    "dial_code": "+56",
    "emoji": "ğŸ‡¨ğŸ‡±",
    "code": "CL"
  },
  {
    "name": "China",
    "dial_code": "+86",
    "emoji": "ğŸ‡¨ğŸ‡³",
    "code": "CN"
  },
  {
    "name": "Ilha do Natal",
    "dial_code": "+61",
    "emoji": "ğŸ‡¨ğŸ‡½",
    "code": "CX"
  },
  {
    "name": "Ilhas Cocos (Keeling)",
    "dial_code": "+61",
    "emoji": "ğŸ‡¨ğŸ‡¨",
    "code": "CC"
  },
  {
    "name": "ColÃ´mbia",
    "dial_code": "+57",
    "emoji": "ğŸ‡¨ğŸ‡´",
    "code": "CO"
  },
  {
    "name": "Comores",
    "dial_code": "+269",
    "emoji": "ğŸ‡°ğŸ‡²",
    "code": "KM"
  },
  {
    "name": "RepÃºblica do Congo",
    "dial_code": "+242",
    "emoji": "ğŸ‡¨ğŸ‡¬",
    "code": "CG"
  },
  {
    "name": "RepÃºblica DemocrÃ¡tica do Congo",
    "dial_code": "+243",
    "emoji": "ğŸ‡¨ğŸ‡©",
    "code": "CD"
  },
  {
    "name": "Ilhas Cook",
    "dial_code": "+682",
    "emoji": "ğŸ‡¨ğŸ‡°",
    "code": "CK"
  },
  {
    "name": "Costa Rica",
    "dial_code": "+506",
    "emoji": "ğŸ‡¨ğŸ‡·",
    "code": "CR"
  },
  {
    "name": "Costa do Marfim",
    "dial_code": "+225",
    "emoji": "ğŸ‡¨ğŸ‡®",
    "code": "CI"
  },
  {
    "name": "CroÃ¡cia",
    "dial_code": "+385",
    "emoji": "ğŸ‡­ğŸ‡·",
    "code": "HR"
  },
  {
    "name": "Cuba",
    "dial_code": "+53",
    "emoji": "ğŸ‡¨ğŸ‡º",
    "code": "CU"
  },
  {
    "name": "Chipre",
    "dial_code": "+357",
    "emoji": "ğŸ‡¨ğŸ‡¾",
    "code": "CY"
  },
  {
    "name": "ChÃ©quia",
    "dial_code": "+420",
    "emoji": "ğŸ‡¨ğŸ‡¿",
    "code": "CZ"
  },
  {
    "name": "Dinamarca",
    "dial_code": "+45",
    "emoji": "ğŸ‡©ğŸ‡°",
    "code": "DK"
  },
  {
    "name": "Djibuti",
    "dial_code": "+253",
    "emoji": "ğŸ‡©ğŸ‡¯",
    "code": "DJ"
  },
  {
    "name": "Dominica",
    "dial_code": "+1767",
    "emoji": "ğŸ‡©ğŸ‡²",
    "code": "DM"
  },
  {
    "name": "RepÃºblica Dominicana",
    "dial_code": "+1849",
    "emoji": "ğŸ‡©ğŸ‡´",
    "code": "DO"
  },
  {
    "name": "Equador",
    "dial_code": "+593",
    "emoji": "ğŸ‡ªğŸ‡¨",
    "code": "EC"
  },
  {
    "name": "Egito",
    "dial_code": "+20",
    "emoji": "ğŸ‡ªğŸ‡¬",
    "code": "EG"
  },
  {
    "name": "El Salvador",
    "dial_code": "+503",
    "emoji": "ğŸ‡¸ğŸ‡»",
    "code": "SV"
  },
  {
    "name": "GuinÃ© Equatorial",
    "dial_code": "+240",
    "emoji": "ğŸ‡¬ğŸ‡¶",
    "code": "GQ"
  },
  {
    "name": "Eritreia",
    "dial_code": "+291",
    "emoji": "ğŸ‡ªğŸ‡·",
    "code": "ER"
  },
  {
    "name": "EstÃ³nia",
    "dial_code": "+372",
    "emoji": "ğŸ‡ªğŸ‡ª",
    "code": "EE"
  },
  {
    "name": "EtiÃ³pia",
    "dial_code": "+251",
    "emoji": "ğŸ‡ªğŸ‡¹",
    "code": "ET"
  },
  {
    "name": "Ilhas Malvinas",
    "dial_code": "+500",
    "emoji": "ğŸ‡«ğŸ‡°",
    "code": "FK"
  },
  {
    "name": "Ilhas FeroÃ©",
    "dial_code": "+298",
    "emoji": "ğŸ‡«ğŸ‡´",
    "code": "FO"
  },
  {
    "name": "Fiji",
    "dial_code": "+679",
    "emoji": "ğŸ‡«ğŸ‡¯",
    "code": "FJ"
  },
  {
    "name": "FinlÃ¢ndia",
    "dial_code": "+358",
    "emoji": "ğŸ‡«ğŸ‡®",
    "code": "FI"
  },
  {
    "name": "FranÃ§a",
    "dial_code": "+33",
    "emoji": "ğŸ‡«ğŸ‡·",
    "code": "FR"
  },
  {
    "name": "Guiana Francesa",
    "dial_code": "+594",
    "emoji": "ğŸ‡¬ğŸ‡«",
    "code": "GF"
  },
  {
    "name": "PolinÃ©sia Francesa",
    "dial_code": "+689",
    "emoji": "ğŸ‡µğŸ‡«",
    "code": "PF"
  },
  {
    "name": "GabÃ£o",
    "dial_code": "+241",
    "emoji": "ğŸ‡¬ğŸ‡¦",
    "code": "GA"
  },
  {
    "name": "GÃ¢mbia",
    "dial_code": "+220",
    "emoji": "ğŸ‡¬ğŸ‡²",
    "code": "GM"
  },
  {
    "name": "GeÃ³rgia",
    "dial_code": "+995",
    "emoji": "ğŸ‡¬ğŸ‡ª",
    "code": "GE"
  },
  {
    "name": "Alemanha",
    "dial_code": "+49",
    "emoji": "ğŸ‡©ğŸ‡ª",
    "code": "DE"
  },
  {
    "name": "Gana",
    "dial_code": "+233",
    "emoji": "ğŸ‡¬ğŸ‡­",
    "code": "GH"
  },
  {
    "name": "Gibraltar",
    "dial_code": "+350",
    "emoji": "ğŸ‡¬ğŸ‡®",
    "code": "GI"
  },
  {
    "name": "GrÃ©cia",
    "dial_code": "+30",
    "emoji": "ğŸ‡¬ğŸ‡·",
    "code": "GR"
  },
  {
    "name": "GronelÃ¢ndia",
    "dial_code": "+299",
    "emoji": "ğŸ‡¬ğŸ‡±",
    "code": "GL"
  },
  {
    "name": "Granada",
    "dial_code": "+1473",
    "emoji": "ğŸ‡¬ğŸ‡©",
    "code": "GD"
  },
  {
    "name": "Guadalupe",
    "dial_code": "+590",
    "emoji": "ğŸ‡¬ğŸ‡µ",
    "code": "GP"
  },
  {
    "name": "Guam",
    "dial_code": "+1671",
    "emoji": "ğŸ‡¬ğŸ‡º",
    "code": "GU"
  },
  {
    "name": "Guatemala",
    "dial_code": "+502",
    "emoji": "ğŸ‡¬ğŸ‡¹",
    "code": "GT"
  },
  {
    "name": "Guernsey",
    "dial_code": "+44",
    "emoji": "ğŸ‡¬ğŸ‡¬",
    "code": "GG"
  },
  {
    "name": "GuinÃ©",
    "dial_code": "+224",
    "emoji": "ğŸ‡¬ğŸ‡³",
    "code": "GN"
  },
  {
    "name": "GuinÃ©-Bissau",
    "dial_code": "+245",
    "emoji": "ğŸ‡¬ğŸ‡¼",
    "code": "GW"
  },
  {
    "name": "Guiana",
    "dial_code": "+595",
    "emoji": "ğŸ‡¬ğŸ‡¾",
    "code": "GY"
  },
  {
    "name": "Haiti",
    "dial_code": "+509",
    "emoji": "ğŸ‡­ğŸ‡¹",
    "code": "HT"
  },
  {
    "name": "Vaticano",
    "dial_code": "+379",
    "emoji": "ğŸ‡»ğŸ‡¦",
    "code": "VA"
  },
  {
    "name": "Honduras",
    "dial_code": "+504",
    "emoji": "ğŸ‡­ğŸ‡³",
    "code": "HN"
  },
  {
    "name": "Hong Kong",
    "dial_code": "+852",
    "emoji": "ğŸ‡­ğŸ‡°",
    "code": "HK"
  },
  {
    "name": "Hungria",
    "dial_code": "+36",
    "emoji": "ğŸ‡­ğŸ‡º",
    "code": "HU"
  },
  {
    "name": "IslÃ¢ndia",
    "dial_code": "+354",
    "emoji": "ğŸ‡®ğŸ‡¸",
    "code": "IS"
  },
  {
    "name": "Ãndia",
    "dial_code": "+91",
    "emoji": "ğŸ‡®ğŸ‡³",
    "code": "IN"
  },
  {
    "name": "IndonÃ©sia",
    "dial_code": "+62",
    "emoji": "ğŸ‡®ğŸ‡©",
    "code": "ID"
  },
  {
    "name": "IrÃ£",
    "dial_code": "+98",
    "emoji": "ğŸ‡®ğŸ‡·",
    "code": "IR"
  },
  {
    "name": "Iraque",
    "dial_code": "+964",
    "emoji": "ğŸ‡®ğŸ‡·",
    "code": "IQ"
  },
  {
    "name": "Irlanda",
    "dial_code": "+353",
    "emoji": "ğŸ‡®ğŸ‡ª",
    "code": "IE"
  },
  {
    "name": "Ilha de Man",
    "dial_code": "+44",
    "emoji": "ğŸ‡®ğŸ‡²",
    "code": "IM"
  },
  {
    "name": "Israel",
    "dial_code": "+972",
    "emoji": "ğŸ‡®ğŸ‡±",
    "code": "IL"
  },
  {
    "name": "ItÃ¡lia",
    "dial_code": "+39",
    "emoji": "ğŸ‡®ğŸ‡¹",
    "code": "IT"
  },
  {
    "name": "Jamaica",
    "dial_code": "+1876",
    "emoji": "ğŸ‡¯ğŸ‡²",
    "code": "JM"
  },
  {
    "name": "JapÃ£o",
    "dial_code": "+81",
    "emoji": "ğŸ‡¯ğŸ‡µ",
    "code": "JP"
  },
  {
    "name": "Jersey",
    "dial_code": "+44",
    "emoji": "ğŸ‡¯ğŸ‡ª",
    "code": "JE"
  },
  {
    "name": "JordÃ¢nia",
    "dial_code": "+962",
    "emoji": "ğŸ‡¯ğŸ‡´",
    "code": "JO"
  },
  {
    "name": "CazaquistÃ£o",
    "dial_code": "+77",
    "emoji": "ğŸ‡°ğŸ‡¿",
    "code": "KZ"
  },
  {
    "name": "QuÃªnia",
    "dial_code": "+254",
    "emoji": "ğŸ‡°ğŸ‡ª",
    "code": "KE"
  },
  {
    "name": "QuiribÃ¡ti",
    "dial_code": "+686",
    "emoji": "ğŸ‡°ğŸ‡®",
    "code": "KI"
  },
  {
    "name": "Coreia do Norte",
    "dial_code": "+850",
    "emoji": "ğŸ‡°ğŸ‡µ",
    "code": "KP"
  },
  {
    "name": "Coreia do Sul",
    "dial_code": "+82",
    "emoji": "ğŸ‡°ğŸ‡·",
    "code": "KR"
  },
  {
    "name": "Kuwait",
    "dial_code": "+965",
    "emoji": "ğŸ‡°ğŸ‡¼",
    "code": "KW"
  },
  {
    "name": "QuirguistÃ£o",
    "dial_code": "+996",
    "emoji": "ğŸ‡°ğŸ‡¬",
    "code": "KG"
  },
  {
    "name": "Laos",
    "dial_code": "+856",
    "emoji": "ğŸ‡±ğŸ‡¦",
    "code": "LA"
  },
  {
    "name": "LetÃ´nia",
    "dial_code": "+371",
    "emoji": "ğŸ‡±ğŸ‡»",
    "code": "LV"
  },
  {
    "name": "LÃ­bano",
    "dial_code": "+961",
    "emoji": "ğŸ‡±ğŸ‡§",
    "code": "LB"
  },
  {
    "name": "Lesoto",
    "dial_code": "+266",
    "emoji": "ğŸ‡±ğŸ‡¸",
    "code": "LS"
  },
  {
    "name": "LibÃ©ria",
    "dial_code": "+231",
    "emoji": "ğŸ‡±ğŸ‡·",
    "code": "LR"
  },
  {
    "name": "LÃ­bia",
    "dial_code": "+218",
    "emoji": "ğŸ‡±ğŸ‡¾",
    "code": "LY"
  },
  {
    "name": "Listenstaine",
    "dial_code": "+423",
    "emoji": "ğŸ‡±ğŸ‡®",
    "code": "LI"
  },
  {
    "name": "LituÃ¢nia",
    "dial_code": "+370",
    "emoji": "ğŸ‡±ğŸ‡¹",
    "code": "LT"
  },
  {
    "name": "Luxemburgo",
    "dial_code": "+352",
    "emoji": "ğŸ‡±ğŸ‡º",
    "code": "LU"
  },
  {
    "name": "Macau",
    "dial_code": "+853",
    "emoji": "ğŸ‡²ğŸ‡´",
    "code": "MO"
  },
  {
    "name": "MacedÃ´nia do Norte",
    "dial_code": "+389",
    "emoji": "ğŸ‡²ğŸ‡°",
    "code": "MK"
  },
  {
    "name": "MadagÃ¡scar",
    "dial_code": "+261",
    "emoji": "ğŸ‡²ğŸ‡¬",
    "code": "MG"
  },
  {
    "name": "MalÃ¡ui",
    "dial_code": "+265",
    "emoji": "ğŸ‡²ğŸ‡¼",
    "code": "MW"
  },
  {
    "name": "MalÃ¡sia",
    "dial_code": "+60",
    "emoji": "ğŸ‡²ğŸ‡¾",
    "code": "MY"
  },
  {
    "name": "Maldivas",
    "dial_code": "+960",
    "emoji": "ğŸ‡²ğŸ‡»",
    "code": "MV"
  },
  {
    "name": "Mali",
    "dial_code": "+223",
    "emoji": "ğŸ‡²ğŸ‡±",
    "code": "ML"
  },
  {
    "name": "Malta",
    "dial_code": "+356",
    "emoji": "ğŸ‡²ğŸ‡¹",
    "code": "MT"
  },
  {
    "name": "Ilhas Marshall",
    "dial_code": "+692",
    "emoji": "ğŸ‡²ğŸ‡­",
    "code": "MH"
  },
  {
    "name": "Martinica",
    "dial_code": "+596",
    "emoji": "ğŸ‡²ğŸ‡¶",
    "code": "MQ"
  },
  {
    "name": "MauritÃ¢nia",
    "dial_code": "+222",
    "emoji": "ğŸ‡²ğŸ‡·",
    "code": "MR"
  },
  {
    "name": "Ilhas MaurÃ­cias",
    "dial_code": "+230",
    "emoji": "ğŸ‡²ğŸ‡º",
    "code": "MU"
  },
  {
    "name": "Maiote",
    "dial_code": "+262",
    "emoji": "ğŸ‡¾ğŸ‡¹",
    "code": "YT"
  },
  {
    "name": "MÃ©xico",
    "dial_code": "+52",
    "emoji": "ğŸ‡²ğŸ‡½",
    "code": "MX"
  },
  {
    "name": "Estados Federados da MicronÃ©sia",
    "dial_code": "+691",
    "emoji": "ğŸ‡«ğŸ‡²",
    "code": "FM"
  },
  {
    "name": "MoldÃ¡via",
    "dial_code": "+373",
    "emoji": "ğŸ‡²ğŸ‡©",
    "code": "MD"
  },
  {
    "name": "MÃ³naco",
    "dial_code": "+377",
    "emoji": "ğŸ‡²ğŸ‡¨",
    "code": "MC"
  },
  {
    "name": "MongÃ³lia",
    "dial_code": "+976",
    "emoji": "ğŸ‡²ğŸ‡³",
    "code": "MN"
  },
  {
    "name": "Montenegro",
    "dial_code": "+382",
    "emoji": "ğŸ‡²ğŸ‡ª",
    "code": "ME"
  },
  {
    "name": "Monserrate",
    "dial_code": "+1664",
    "emoji": "ğŸ‡²ğŸ‡¸",
    "code": "MS"
  },
  {
    "name": "Marrocos",
    "dial_code": "+212",
    "emoji": "ğŸ‡²ğŸ‡¦",
    "code": "MA"
  },
  {
    "name": "MoÃ§ambique",
    "dial_code": "+258",
    "emoji": "ğŸ‡²ğŸ‡¿",
    "code": "MZ"
  },
  {
    "name": "Mianmar",
    "dial_code": "+95",
    "emoji": "ğŸ‡²ğŸ‡²",
    "code": "MM"
  },
  {
    "name": "NamÃ­bia",
    "emoji": "ğŸ‡³ğŸ‡¦",
    "dial_code": "+264",
    "code": "NA"
  },
  {
    "name": "Nauru",
    "dial_code": "+674",
    "emoji": "ğŸ‡³ğŸ‡·",
    "code": "NR"
  },
  {
    "name": "Nepal",
    "dial_code": "+977",
    "emoji": "ğŸ‡³ğŸ‡µ",
    "code": "NP"
  },
  {
    "name": "PaÃ­ses Baixos",
    "dial_code": "+31",
    "emoji": "ğŸ‡³ğŸ‡±",
    "code": "NL"
  },
  {
    "name": "Antilhas Holandesas",
    "dial_code": "+599",
    "emoji": "ğŸ‡§ğŸ‡¶",
    "code": "AN"
  },
  {
    "name": "Nova CaledÃ³nia",
    "dial_code": "+687",
    "emoji": "ğŸ‡³ğŸ‡¨",
    "code": "NC"
  },
  {
    "name": "Nova ZelÃ¢ndia",
    "dial_code": "+64",
    "emoji": "ğŸ‡³ğŸ‡¿",
    "code": "NZ"
  },
  {
    "name": "NicarÃ¡gua",
    "dial_code": "+505",
    "emoji": "ğŸ‡³ğŸ‡®",
    "code": "NI"
  },
  {
    "name": "NÃ­ger",
    "dial_code": "+227",
    "emoji": "ğŸ‡³ğŸ‡ª",
    "code": "NE"
  },
  {
    "name": "NigÃ©ria",
    "dial_code": "+234",
    "emoji": "ğŸ‡³ğŸ‡¬",
    "code": "NG"
  },
  {
    "name": "Niue",
    "dial_code": "+683",
    "emoji": "ğŸ‡³ğŸ‡º",
    "code": "NU"
  },
  {
    "name": "Ilha Norfolk",
    "dial_code": "+672",
    "emoji": "ğŸ‡³ğŸ‡«",
    "code": "NF"
  },
  {
    "name": "Marianas Setentrionais",
    "dial_code": "+1670",
    "emoji": "ğŸ‡²ğŸ‡µ",
    "code": "MP"
  },
  {
    "name": "Noruega",
    "dial_code": "+47",
    "emoji": "ğŸ‡³ğŸ‡´",
    "code": "NO"
  },
  {
    "name": "OmÃ£",
    "dial_code": "+968",
    "emoji": "ğŸ‡´ğŸ‡²",
    "code": "OM"
  },
  {
    "name": "PaquistÃ£o",
    "dial_code": "+92",
    "emoji": "ğŸ‡µğŸ‡°",
    "code": "PK"
  },
  {
    "name": "Palau",
    "dial_code": "+680",
    "emoji": "ğŸ‡µğŸ‡¼",
    "code": "PW"
  },
  {
    "name": "Palestina",
    "dial_code": "+970",
    "emoji": "ğŸ‡µğŸ‡¸",
    "code": "PS"
  },
  {
    "name": "PanamÃ¡",
    "dial_code": "+507",
    "emoji": "ğŸ‡µğŸ‡¦",
    "code": "PA"
  },
  {
    "name": "Papua-Nova GuinÃ©",
    "dial_code": "+675",
    "emoji": "ğŸ‡µğŸ‡¬",
    "code": "PG"
  },
  {
    "name": "Paraguai",
    "dial_code": "+595",
    "emoji": "ğŸ‡µğŸ‡¾",
    "code": "PY"
  },
  {
    "name": "Peru",
    "dial_code": "+51",
    "emoji": "ğŸ‡µğŸ‡ª",
    "code": "PE"
  },
  {
    "name": "Filipinas",
    "dial_code": "+63",
    "emoji": "ğŸ‡µğŸ‡­",
    "code": "PH"
  },
  {
    "name": "Pitcairn",
    "dial_code": "+872",
    "emoji": "ğŸ‡µğŸ‡³",
    "code": "PN"
  },
  {
    "name": "PolÃ³nia",
    "dial_code": "+48",
    "emoji": "ğŸ‡µğŸ‡±",
    "code": "PL"
  },
  {
    "name": "Portugal",
    "dial_code": "+351",
    "emoji": "ğŸ‡µğŸ‡¹",
    "code": "PT"
  },
  {
    "name": "Porto Rico",
    "dial_code": "+1939",
    "emoji": "ğŸ‡µğŸ‡·",
    "code": "PR"
  },
  {
    "name": "Catar",
    "dial_code": "+974",
    "emoji": "ğŸ‡¶ğŸ‡¦",
    "code": "QA"
  },
  {
    "name": "RomÃ©nia",
    "dial_code": "+40",
    "emoji": "ğŸ‡·ğŸ‡´",
    "code": "RO"
  },
  {
    "name": "RÃºssia",
    "dial_code": "+7",
    "emoji": "ğŸ‡·ğŸ‡º",
    "code": "RU"
  },
  {
    "name": "Ruanda",
    "dial_code": "+250",
    "emoji": "ğŸ‡·ğŸ‡¼",
    "code": "RW"
  },
  {
    "name": "ReuniÃ£o",
    "dial_code": "+262",
    "emoji": "ğŸ‡·ğŸ‡ª",
    "code": "RE"
  },
  {
    "name": "SÃ£o Bartolomeu",
    "dial_code": "+590",
    "emoji": "ğŸ‡§ğŸ‡±",
    "code": "BL"
  },
  {
    "name": "Santa Helena, AscensÃ£o e TristÃ£o da Cunha",
    "dial_code": "+290",
    "emoji": "ğŸ‡¸ğŸ‡­",
    "code": "SH"
  },
  {
    "name": "SÃ£o CristÃ³vÃ£o e Neves",
    "dial_code": "+1869",
    "emoji": "ğŸ‡°ğŸ‡³",
    "code": "KN"
  },
  {
    "name": "Santa LÃºcia",
    "dial_code": "+1758",
    "emoji": "ğŸ‡±ğŸ‡¨",
    "code": "LC"
  },
  {
    "name": "SÃ£o Martinho",
    "dial_code": "+590",
    "emoji": "ğŸ‡²ğŸ‡«",
    "code": "MF"
  },
  {
    "name": "SÃ£o Pedro e MiquelÃ£o",
    "dial_code": "+508",
    "emoji": "ğŸ‡µğŸ‡²",
    "code": "PM"
  },
  {
    "name": "SÃ£o Vicente e Granadinas",
    "dial_code": "+1784",
    "emoji": "ğŸ‡»ğŸ‡¨",
    "code": "VC"
  },
  {
    "name": "Samoa",
    "dial_code": "+685",
    "emoji": "ğŸ‡¼ğŸ‡¸",
    "code": "WS"
  },
  {
    "name": "San Marino",
    "dial_code": "+378",
    "emoji": "ğŸ‡¸ğŸ‡²",
    "code": "SM"
  },
  {
    "name": "SÃ£o TomÃ© e PrÃ­ncipe",
    "dial_code": "+239",
    "emoji": "ğŸ‡¸ğŸ‡¹",
    "code": "ST"
  },
  {
    "name": "ArÃ¡bia Saudita",
    "dial_code": "+966",
    "emoji": "ğŸ‡¸ğŸ‡¦",
    "code": "SA"
  },
  {
    "name": "Senegal",
    "dial_code": "+221",
    "emoji": "ğŸ‡¸ğŸ‡³",
    "code": "SN"
  },
  {
    "name": "SÃ©rvia",
    "dial_code": "+381",
    "emoji": "ğŸ‡·ğŸ‡¸",
    "code": "RS"
  },
  {
    "name": "Seicheles",
    "dial_code": "+248",
    "emoji": "ğŸ‡¸ğŸ‡¨",
    "code": "SC"
  },
  {
    "name": "Serra Leoa",
    "dial_code": "+232",
    "emoji": "ğŸ‡¸ğŸ‡±",
    "code": "SL"
  },
  {
    "name": "Singapura",
    "dial_code": "+65",
    "emoji": "ğŸ‡¸ğŸ‡¬",
    "code": "SG"
  },
  {
    "name": "EslovÃ¡quia",
    "dial_code": "+421",
    "emoji": "ğŸ‡¸ğŸ‡°",
    "code": "SK"
  },
  {
    "name": "EslovÃªnia",
    "dial_code": "+386",
    "emoji": "ğŸ‡¸ğŸ‡®",
    "code": "SI"
  },
  {
    "name": "Ilhas SalomÃ£o",
    "dial_code": "+677",
    "emoji": "ğŸ‡¸ğŸ‡§",
    "code": "SB"
  },
  {
    "name": "SomÃ¡lia",
    "dial_code": "+252",
    "emoji": "ğŸ‡¸ğŸ‡´",
    "code": "SO"
  },
  {
    "name": "Ãfrica do Sul",
    "dial_code": "+27",
    "emoji": "ğŸ‡¿ğŸ‡¦",
    "code": "ZA"
  },
  {
    "name": "SudÃ£o do Sul",
    "dial_code": "+211",
    "emoji": "ğŸ‡¸ğŸ‡¸",
    "code": "SS"
  },
  {
    "name": "Ilhas GeÃ³rgia do Sul e Sandwich do Sul",
    "dial_code": "+500",
    "emoji": "ğŸ‡¬ğŸ‡¸",
    "code": "GS"
  },
  {
    "name": "Espanha",
    "dial_code": "+34",
    "emoji": "ğŸ‡ªğŸ‡¸",
    "code": "ES"
  },
  {
    "name": "Seri Lanca",
    "dial_code": "+94",
    "emoji": "ğŸ‡±ğŸ‡°",
    "code": "LK"
  },
  {
    "name": "SudÃ£o",
    "dial_code": "+249",
    "emoji": "ğŸ‡¸ğŸ‡©",
    "code": "SD"
  },
  {
    "name": "Suriname",
    "dial_code": "+597",
    "emoji": "ğŸ‡¸ğŸ‡·",
    "code": "SR"
  },
  {
    "name": "Esvalbarde e Jan Mayen",
    "dial_code": "+47",
    "emoji": "ğŸ‡¸ğŸ‡¯",
    "code": "SJ"
  },
  {
    "name": "EssuatÃ­ni",
    "dial_code": "+268",
    "emoji": "ğŸ‡¸ğŸ‡¿",
    "code": "SZ"
  },
  {
    "name": "SuÃ©cia",
    "dial_code": "+46",
    "emoji": "ğŸ‡¸ğŸ‡ª",
    "code": "SE"
  },
  {
    "name": "SuÃ­Ã§a",
    "dial_code": "+41",
    "emoji": "ğŸ‡¨ğŸ‡­",
    "code": "CH"
  },
  {
    "name": "SÃ­ria",
    "dial_code": "+963",
    "emoji": "ğŸ‡¸ğŸ‡¾",
    "code": "SY"
  },
  {
    "name": "Taiwan",
    "dial_code": "+886",
    "emoji": "ğŸ‡¹ğŸ‡¼",
    "code": "TW"
  },
  {
    "name": "TajiquistÃ£o",
    "dial_code": "+992",
    "emoji": "ğŸ‡¹ğŸ‡¯",
    "code": "TJ"
  },
  {
    "name": "TanzÃ¢nia",
    "dial_code": "+255",
    "emoji": "ğŸ‡¹ğŸ‡¿",
    "code": "TZ"
  },
  {
    "name": "TailÃ¢ndia",
    "dial_code": "+66",
    "emoji": "ğŸ‡¹ğŸ‡­",
    "code": "TH"
  },
  {
    "name": "Timor-Leste",
    "dial_code": "+670",
    "emoji": "ğŸ‡¹ğŸ‡±",
    "code": "TL"
  },
  {
    "name": "Togo",
    "dial_code": "+228",
    "emoji": "ğŸ‡¹ğŸ‡¬",
    "code": "TG"
  },
  {
    "name": "Toquelau",
    "dial_code": "+690",
    "emoji": "ğŸ‡¹ğŸ‡°",
    "code": "TK"
  },
  {
    "name": "Tonga",
    "dial_code": "+676",
    "emoji": "ğŸ‡¹ğŸ‡´",
    "code": "TO"
  },
  {
    "name": "Trinidad e Tobago",
    "dial_code": "+1868",
    "emoji": "ğŸ‡¹ğŸ‡¹",
    "code": "TT"
  },
  {
    "name": "TunÃ­sia",
    "dial_code": "+216",
    "emoji": "ğŸ‡¹ğŸ‡³",
    "code": "TN"
  },
  {
    "name": "Turquia",
    "dial_code": "+90",
    "emoji": "ğŸ‡¹ğŸ‡·",
    "code": "TR"
  },
  {
    "name": "TurcomenistÃ£o",
    "dial_code": "+993",
    "emoji": "ğŸ‡¹ğŸ‡²",
    "code": "TM"
  },
  {
    "name": "Turcas e Caicos",
    "dial_code": "+1649",
    "emoji": "ğŸ‡¹ğŸ‡¨",
    "code": "TC"
  },
  {
    "name": "Tuvalu",
    "dial_code": "+688",
    "emoji": "ğŸ‡¹ğŸ‡»",
    "code": "TV"
  },
  {
    "name": "Uganda",
    "dial_code": "+256",
    "emoji": "ğŸ‡ºğŸ‡¬",
    "code": "UG"
  },
  {
    "name": "UcrÃ¢nia",
    "dial_code": "+380",
    "emoji": "ğŸ‡ºğŸ‡¦",
    "code": "UA"
  },
  {
    "name": "Emirados Ãrabes Unidos",
    "dial_code": "+971",
    "emoji": "ğŸ‡¦ğŸ‡ª",
    "code": "AE"
  },
  {
    "name": "Reino Unido",
    "dial_code": "+44",
    "emoji": "ğŸ‡¬ğŸ‡§",
    "code": "GB"
  },
  {
    "name": "Estados Unidos",
    "dial_code": "+1",
    "emoji": "ğŸ‡ºğŸ‡¸",
    "code": "US"
  },
  {
    "name": "Uruguai",
    "dial_code": "+598",
    "emoji": "ğŸ‡ºğŸ‡¾",
    "code": "UY"
  },
  {
    "name": "UzbequistÃ£o",
    "dial_code": "+998",
    "emoji": "ğŸ‡ºğŸ‡¿",
    "code": "UZ"
  },
  {
    "name": "Vanuatu",
    "dial_code": "+678",
    "emoji": "ğŸ‡»ğŸ‡º",
    "code": "VU"
  },
  {
    "name": "Venezuela",
    "dial_code": "+58",
    "emoji": "ğŸ‡»ğŸ‡ª",
    "code": "VE"
  },
  {
    "name": "Vietname",
    "dial_code": "+84",
    "emoji": "ğŸ‡»ğŸ‡³",
    "code": "VN"
  },
  {
    "name": "Ilhas Virgens BritÃ¢nicas",
    "dial_code": "+1284",
    "emoji": "ğŸ‡»ğŸ‡¬",
    "code": "VG"
  },
  {
    "name": "Ilhas Virgens Americanas",
    "dial_code": "+1340",
    "emoji": "ğŸ‡»ğŸ‡®",
    "code": "VI"
  },
  {
    "name": "Wallis e Futuna",
    "dial_code": "+681",
    "emoji": "ğŸ‡¼ğŸ‡«",
    "code": "WF"
  },
  {
    "name": "IÃªmen",
    "dial_code": "+967",
    "emoji": "ğŸ‡¾ğŸ‡ª",
    "code": "YE"
  },
  {
    "name": "ZÃ¢mbia",
    "dial_code": "+260",
    "emoji": "ğŸ‡¿ğŸ‡²",
    "code": "ZM"
  },
  {
    "name": "ZimbÃ¡bue",
    "dial_code": "+263",
    "emoji": "ğŸ‡¿ğŸ‡¼",
    "code": "ZW"
  }
]
